[{"OBJECT_NAME":"STARLINK-33935","OBJECT_ID":"2025-091S","EPOCH":"2026-03-09T22:04:28.911648","MEAN_MOTION":15.2758784,"ECCENTRICITY":0.00026931,"INCLINATION":43.0018,"RA_OF_ASC_NODE":51.5519,"ARG_OF_PERICENTER":294.5248,"MEAN_ANOMALY":65.5323,"EPHEMERIS_TYPE":0,"CLASSIFICATION_TYPE":"U","NORAD_CAT_ID":63791,"ELEMENT_SET_NO":999,"REV_AT_EPOCH":4904,"BSTAR":0.001012897,"MEAN_MOTION_DOT":0.00027723,"MEAN_MOTION_DDOT":0},{"OBJECT_NAME":"COSMOS 2251 DEB","OBJECT_ID":"1993-036BPR","EPOCH":"2026-02-24T07:57:21.236256","MEAN_MOTION":15.23776337,"ECCENTRICITY":0.00166824,"INCLINATION":73.9787,"RA_OF_ASC_NODE":76.2838,"ARG_OF_PERICENTER":284.1156,"MEAN_ANOMALY":75.8189,"EPHEMERIS_TYPE":0,"CLASSIFICATION_TYPE":"U","NORAD_CAT_ID":37966,"ELEMENT_SET_NO":999,"REV_AT_EPOCH":86459,"BSTAR":0.0031189174,"MEAN_MOTION_DOT":0.00076101,"MEAN_MOTION_DDOT":0}]
